{
  "type": "FeatureCollection",
  "features": [
    {
      "type": "Feature",
      "properties": {
        "norad_id": 55973,
        "name": "TIANMU-1 03",
        "group": "weather",
        "lat": -81.30206077287606,
        "lon": -95.47313733203391,
        "alt_km": 454.4360136606738,
        "timestamp": "2025-12-07T14:37:04.853215+00:00",
        "meta_object_name": "TIANMU-1 03",
        "meta_object_id": "2023-039A",
        "meta_epoch": "2025-12-06T21:52:52.041216",
        "meta_mean_motion": 15.40670719,
        "meta_eccentricity": 0.00045039,
        "meta_inclination": 97.5109,
        "meta_ra_of_asc_node": 143.4018,
        "meta_arg_of_pericenter": 78.2345,
        "meta_mean_anomaly": 281.9406,
        "meta_ephemeris_type": 0,
        "meta_classification_type": "U",
        "meta_norad_cat_id": 55973,
        "meta_element_set_no": 999,
        "meta_rev_at_epoch": 15116,
        "meta_bstar": 0.00051803904,
        "meta_mean_motion_dot": 0.00021081,
        "meta_mean_motion_ddot": 0,
        "tle_line1": "1 55973U 23039A   25340.91171344  .00021081  00000+0  51804-3 0  9992",
        "tle_line2": "2 55973  97.5109 143.4018 0004503  78.2345 281.9406 15.40670719151168"
      },
      "geometry": {
        "type": "Point",
        "coordinates": [
          -95.47313733203391,
          -81.30206077287606
        ]
      }
    },
    {
      "type": "Feature",
      "properties": {
        "norad_id": 55974,
        "name": "TIANMU-1 04",
        "group": "weather",
        "lat": 13.1125349088048,
        "lon": 141.55175657154768,
        "alt_km": 442.42226010214927,
        "timestamp": "2025-12-07T14:37:04.853234+00:00",
        "meta_object_name": "TIANMU-1 04",
        "meta_object_id": "2023-039B",
        "meta_epoch": "2025-12-06T21:25:05.317824",
        "meta_mean_motion": 15.41002082,
        "meta_eccentricity": 0.00051894,
        "meta_inclination": 97.5041,
        "meta_ra_of_asc_node": 142.5754,
        "meta_arg_of_pericenter": 73.7477,
        "meta_mean_anomaly": 286.4339,
        "meta_ephemeris_type": 0,
        "meta_classification_type": "U",
        "meta_norad_cat_id": 55974,
        "meta_element_set_no": 999,
        "meta_rev_at_epoch": 15116,
        "meta_bstar": 0.00053022925,
        "meta_mean_motion_dot": 0.00021821,
        "meta_mean_motion_ddot": 0,
        "tle_line1": "1 55974U 23039B   25340.89242266  .00021821  00000+0  53023-3 0  9999",
        "tle_line2": "2 55974  97.5041 142.5754 0005189  73.7477 286.4339 15.41002082151166"
      },
      "geometry": {
        "type": "Point",
        "coordinates": [
          141.55175657154768,
          13.1125349088048
        ]
      }
    },
    {
      "type": "Feature",
      "properties": {
        "norad_id": 55975,
        "name": "TIANMU-1 05",
        "group": "weather",
        "lat": 51.51597945030547,
        "lon": 134.25305129536218,
        "alt_km": 437.17561690494676,
        "timestamp": "2025-12-07T14:37:04.853245+00:00",
        "meta_object_name": "TIANMU-1 05",
        "meta_object_id": "2023-039C",
        "meta_epoch": "2025-12-06T21:14:44.550240",
        "meta_mean_motion": 15.40627096,
        "meta_eccentricity": 0.00043668,
        "meta_inclination": 97.5087,
        "meta_ra_of_asc_node": 143.0602,
        "meta_arg_of_pericenter": 95.1079,
        "meta_mean_anomaly": 265.0665,
        "meta_ephemeris_type": 0,
        "meta_classification_type": "U",
        "meta_norad_cat_id": 55975,
        "meta_element_set_no": 999,
        "meta_rev_at_epoch": 15114,
        "meta_bstar": 0.00052865167,
        "meta_mean_motion_dot": 0.00021484,
        "meta_mean_motion_ddot": 0,
        "tle_line1": "1 55975U 23039C   25340.88523785  .00021484  00000+0  52865-3 0  9995",
        "tle_line2": "2 55975  97.5087 143.0602 0004366  95.1079 265.0665 15.40627096151147"
      },
      "geometry": {
        "type": "Point",
        "coordinates": [
          134.25305129536218,
          51.51597945030547
        ]
      }
    },
    {
      "type": "Feature",
      "properties": {
        "norad_id": 55976,
        "name": "TIANMU-1 06",
        "group": "weather",
        "lat": 0.1916916510025218,
        "lon": 144.23902208881037,
        "alt_km": 445.8479813871154,
        "timestamp": "2025-12-07T14:37:04.853255+00:00",
        "meta_object_name": "TIANMU-1 06",
        "meta_object_id": "2023-039D",
        "meta_epoch": "2025-12-06T21:28:30.349344",
        "meta_mean_motion": 15.41054475,
        "meta_eccentricity": 0.00046819,
        "meta_inclination": 97.5098,
        "meta_ra_of_asc_node": 143.5302,
        "meta_arg_of_pericenter": 90.2713,
        "meta_mean_anomaly": 269.907,
        "meta_ephemeris_type": 0,
        "meta_classification_type": "U",
        "meta_norad_cat_id": 55976,
        "meta_element_set_no": 999,
        "meta_rev_at_epoch": 15116,
        "meta_bstar": 0.00052598356,
        "meta_mean_motion_dot": 0.00021681,
        "meta_mean_motion_ddot": 0,
        "tle_line1": "1 55976U 23039D   25340.89479571  .00021681  00000+0  52598-3 0  9992",
        "tle_line2": "2 55976  97.5098 143.5302 0004681  90.2713 269.9070 15.41054475151164"
      },
      "geometry": {
        "type": "Point",
        "coordinates": [
          144.23902208881037,
          0.1916916510025218
        ]
      }
    },
    {
      "type": "Feature",
      "properties": {
        "norad_id": 56232,
        "name": "FENGYUN 3G",
        "group": "weather",
        "lat": 4.924214571920353,
        "lon": 69.77161194941161,
        "alt_km": 403.25717003521186,
        "timestamp": "2025-12-07T14:37:04.853265+00:00",
        "meta_object_name": "FENGYUN 3G",
        "meta_object_id": "2023-055A",
        "meta_epoch": "2025-12-06T22:26:04.669728",
        "meta_mean_motion": 15.53134913,
        "meta_eccentricity": 0.00092333,
        "meta_inclination": 49.9942,
        "meta_ra_of_asc_node": 257.4002,
        "meta_arg_of_pericenter": 120.7601,
        "meta_mean_anomaly": 239.4277,
        "meta_ephemeris_type": 0,
        "meta_classification_type": "U",
        "meta_norad_cat_id": 56232,
        "meta_element_set_no": 999,
        "meta_rev_at_epoch": 15012,
        "meta_bstar": 0.00069922918,
        "meta_mean_motion_dot": 0.00044561,
        "meta_mean_motion_ddot": 0,
        "tle_line1": "1 56232U 23055A   25340.93477627  .00044561  00000+0  69923-3 0  9993",
        "tle_line2": "2 56232  49.9942 257.4002 0009233 120.7601 239.4277 15.53134913150129"
      },
      "geometry": {
        "type": "Point",
        "coordinates": [
          69.77161194941161,
          4.924214571920353
        ]
      }
    },
    {
      "type": "Feature",
      "properties": {
        "norad_id": 57166,
        "name": "METEOR-M2 3",
        "group": "weather",
        "lat": -58.83278192116083,
        "lon": -159.31925525039057,
        "alt_km": 821.2818752698968,
        "timestamp": "2025-12-07T14:37:04.853275+00:00",
        "meta_object_name": "METEOR-M2 3",
        "meta_object_id": "2023-091A",
        "meta_epoch": "2025-12-06T22:19:04.891008",
        "meta_mean_motion": 14.24025063,
        "meta_eccentricity": 0.00042262,
        "meta_inclination": 98.6387,
        "meta_ra_of_asc_node": 34.5706,
        "meta_arg_of_pericenter": 24.717,
        "meta_mean_anomaly": 335.421,
        "meta_ephemeris_type": 0,
        "meta_classification_type": "U",
        "meta_norad_cat_id": 57166,
        "meta_element_set_no": 999,
        "meta_rev_at_epoch": 12715,
        "meta_bstar": 5.1777164e-05,
        "meta_mean_motion_dot": 7.5e-07,
        "meta_mean_motion_ddot": 0,
        "tle_line1": "1 57166U 23091A   25340.92991772  .00000075  00000+0  51777-4 0  9992",
        "tle_line2": "2 57166  98.6387  34.5706 0004226  24.7170 335.4210 14.24025063127159"
      },
      "geometry": {
        "type": "Point",
        "coordinates": [
          -159.31925525039057,
          -58.83278192116083
        ]
      }
    },
    {
      "type": "Feature",
      "properties": {
        "norad_id": 57399,
        "name": "TIANMU-1 07",
        "group": "weather",
        "lat": -50.02359244462784,
        "lon": 40.3530563253926,
        "alt_km": 491.9805596524948,
        "timestamp": "2025-12-07T14:37:04.853285+00:00",
        "meta_object_name": "TIANMU-1 07",
        "meta_object_id": "2023-101A",
        "meta_epoch": "2025-12-06T21:32:59.929440",
        "meta_mean_motion": 15.27945246,
        "meta_eccentricity": 0.00056048,
        "meta_inclination": 97.288,
        "meta_ra_of_asc_node": 30.8772,
        "meta_arg_of_pericenter": 96.1764,
        "meta_mean_anomaly": 264.0114,
        "meta_ephemeris_type": 0,
        "meta_classification_type": "U",
        "meta_norad_cat_id": 57399,
        "meta_element_set_no": 999,
        "meta_rev_at_epoch": 13226,
        "meta_bstar": 0.00043098546,
        "meta_mean_motion_dot": 0.00011692,
        "meta_mean_motion_ddot": 0,
        "tle_line1": "1 57399U 23101A   25340.89791585  .00011692  00000+0  43099-3 0  9992",
        "tle_line2": "2 57399  97.2880  30.8772 0005604  96.1764 264.0114 15.27945246132261"
      },
      "geometry": {
        "type": "Point",
        "coordinates": [
          40.3530563253926,
          -50.02359244462784
        ]
      }
    }
  ]
}